[{"OBJECT_NAME":"GEESAT-5 05","OBJECT_ID":"2025-201E","EPOCH":"2026-03-09T17:14:17.887776","MEAN_MOTION":14.83770163,"ECCENTRICITY":0.00115794,"INCLINATION":49.98,"RA_OF_ASC_NODE":140.5064,"ARG_OF_PERICENTER":255.8827,"MEAN_ANOMALY":104.0824,"EPHEMERIS_TYPE":0,"CLASSIFICATION_TYPE":"U","NORAD_CAT_ID":65554,"ELEMENT_SET_NO":999,"REV_AT_EPOCH":2702,"BSTAR":0.00036020653,"MEAN_MOTION_DOT":2.79e-5,"MEAN_MOTION_DDOT":0},{"OBJECT_NAME":"CZ-6A DEB","OBJECT_ID":"2024-140EN","EPOCH":"2026-03-09T13:16:26.512032","MEAN_MOTION":14.62366199,"ECCENTRICITY":0.01061152,"INCLINATION":89.0205,"RA_OF_ASC_NODE":283.5219,"ARG_OF_PERICENTER":223.1419,"MEAN_ANOMALY":136.1446,"EPHEMERIS_TYPE":0,"CLASSIFICATION_TYPE":"U","NORAD_CAT_ID":60763,"ELEMENT_SET_NO":999,"REV_AT_EPOCH":8320,"BSTAR":0.00091380708,"MEAN_MOTION_DOT":5.024e-5,"MEAN_MOTION_DDOT":0}]
